start=new Date('2022-11-19T00:00:00.000Z').valueOf();
sats=[{"EPHEMERIS_TYPE":"0","MEAN_MOTION_DOT":"0.00035366","RCS_SIZE":"LARGE","BSTAR":"0.00062859000000","SITE":"AFETR","APOAPSIS":"418.409","CLASSIFICATION_TYPE":"U","ELEMENT_SET_NO":"999","PERIOD":"92.911","FILE":"3662753","REF_FRAME":"TEME","MEAN_ANOMALY":"347.6726","PERIAPSIS":"415.811","OBJECT_ID":"2022-136S","ARG_OF_PERICENTER":"38.8034","TLE_LINE2":"2 54067  53.2164   4.1939 0001912  38.8034 347.6726 15.49869243  1300","INCLINATION":"53.2164","TIME_SYSTEM":"UTC","EPOCH":"2022-11-18T22:00:00.999936","OBJECT_TYPE":"PAYLOAD","GP_ID":"218169754","DECAY_DATE":null,"MEAN_MOTION":"15.49869243","MEAN_MOTION_DDOT":"0.0000000000000","LAUNCH_DATE":"2022-10-20","COUNTRY_CODE":"US","TLE_LINE1":"1 54067U 22136S   22322.91667824  .00035366  00000-0  62859-3 0  9996","MEAN_ELEMENT_THEORY":"SGP4","REV_AT_EPOCH":"130","RA_OF_ASC_NODE":"4.1939","CENTER_NAME":"EARTH","SEMIMAJOR_AXIS":"6795.245","NORAD_CAT_ID":"54067","OBJECT_NAME":"STARLINK-5174","ECCENTRICITY":"0.00019120"},{"CENTER_NAME":"EARTH","REV_AT_EPOCH":"130","RA_OF_ASC_NODE":"4.1929","OBJECT_NAME":"STARLINK-5222","SEMIMAJOR_AXIS":"6795.096","NORAD_CAT_ID":"54068","ECCENTRICITY":"0.00012320","LAUNCH_DATE":"2022-10-20","MEAN_ELEMENT_THEORY":"SGP4","COUNTRY_CODE":"US","TLE_LINE1":"1 54068U 22136T   22322.91667824  .00037148  00000-0  65853-3 0  9994","MEAN_MOTION_DDOT":"0.0000000000000","EPOCH":"2022-11-18T22:00:00.999936","GP_ID":"218169589","OBJECT_TYPE":"PAYLOAD","MEAN_MOTION":"15.49920347","DECAY_DATE":null,"ARG_OF_PERICENTER":"116.4778","INCLINATION":"53.2166","TIME_SYSTEM":"UTC","TLE_LINE2":"2 54068  53.2166   4.1929 0001232 116.4778 267.9899 15.49920347  1303","MEAN_ANOMALY":"267.9899","PERIAPSIS":"416.124","REF_FRAME":"TEME","OBJECT_ID":"2022-136T","APOAPSIS":"417.798","SITE":"AFETR","FILE":"3662753","ELEMENT_SET_NO":"999","CLASSIFICATION_TYPE":"U","PERIOD":"92.908","EPHEMERIS_TYPE":"0","MEAN_MOTION_DOT":"0.00037148","BSTAR":"0.00065853000000","RCS_SIZE":"LARGE"},{"OBJECT_ID":"2022-136U","PERIAPSIS":"415.655","MEAN_ANOMALY":"347.6475","REF_FRAME":"TEME","TIME_SYSTEM":"UTC","INCLINATION":"53.2158","TLE_LINE2":"2 54069  53.2158   4.1769 0001873  46.0397 347.6475 15.49931771  1302","ARG_OF_PERICENTER":"46.0397","BSTAR":"0.00044589000000","RCS_SIZE":"LARGE","EPHEMERIS_TYPE":"0","MEAN_MOTION_DOT":"0.00024978","FILE":"3662753","PERIOD":"92.907","CLASSIFICATION_TYPE":"U","ELEMENT_SET_NO":"999","APOAPSIS":"418.200","SITE":"AFETR","MEAN_ELEMENT_THEORY":"SGP4","TLE_LINE1":"1 54069U 22136U   22322.91667824  .00024978  00000-0  44589-3 0  9995","COUNTRY_CODE":"US","LAUNCH_DATE":"2022-10-20","ECCENTRICITY":"0.00018730","SEMIMAJOR_AXIS":"6795.062","NORAD_CAT_ID":"54069","OBJECT_NAME":"STARLINK-5223","CENTER_NAME":"EARTH","RA_OF_ASC_NODE":"4.1769","REV_AT_EPOCH":"130","MEAN_MOTION":"15.49931771","DECAY_DATE":null,"GP_ID":"218168762","OBJECT_TYPE":"PAYLOAD","EPOCH":"2022-11-18T22:00:00.999936","MEAN_MOTION_DDOT":"0.0000000000000"},{"NORAD_CAT_ID":"54070","SEMIMAJOR_AXIS":"6795.206","ECCENTRICITY":"0.00018760","OBJECT_NAME":"STARLINK-5181","REV_AT_EPOCH":"130","RA_OF_ASC_NODE":"4.1893","CENTER_NAME":"EARTH","TLE_LINE1":"1 54070U 22136V   22322.91667824  .00035326  00000-0  62759-3 0  9995","COUNTRY_CODE":"US","MEAN_ELEMENT_THEORY":"SGP4","LAUNCH_DATE":"2022-10-20","MEAN_MOTION_DDOT":"0.0000000000000","DECAY_DATE":null,"MEAN_MOTION":"15.49882687","OBJECT_TYPE":"PAYLOAD","GP_ID":"218168927","EPOCH":"2022-11-18T22:00:00.999936","TLE_LINE2":"2 54070  53.2166   4.1893 0001876  35.9000 352.4981 15.49882687  1309","TIME_SYSTEM":"UTC","INCLINATION":"53.2166","ARG_OF_PERICENTER":"35.9000","OBJECT_ID":"2022-136V","REF_FRAME":"TEME","PERIAPSIS":"415.796","MEAN_ANOMALY":"352.4981","PERIOD":"92.910","ELEMENT_SET_NO":"999","CLASSIFICATION_TYPE":"U","FILE":"3662753","SITE":"AFETR","APOAPSIS":"418.346","RCS_SIZE":"LARGE","BSTAR":"0.00062759000000","MEAN_MOTION_DOT":"0.00035326","EPHEMERIS_TYPE":"0"},{"RCS_SIZE":"LARGE","BSTAR":"0.00063034000000","MEAN_MOTION_DOT":"0.00035476","EPHEMERIS_TYPE":"0","FILE":"3662753","ELEMENT_SET_NO":"999","CLASSIFICATION_TYPE":"U","PERIOD":"92.911","APOAPSIS":"418.298","SITE":"AFETR","OBJECT_ID":"2022-136W","MEAN_ANOMALY":"347.8383","PERIAPSIS":"415.878","REF_FRAME":"TEME","INCLINATION":"53.2157","TIME_SYSTEM":"UTC","TLE_LINE2":"2 54071  53.2157   4.1795 0001781  44.2341 347.8383 15.49876794  1303","ARG_OF_PERICENTER":"44.2341","MEAN_MOTION":"15.49876794","DECAY_DATE":null,"EPOCH":"2022-11-18T22:00:00.999936","GP_ID":"218169435","OBJECT_TYPE":"PAYLOAD","MEAN_MOTION_DDOT":"0.0000000000000","MEAN_ELEMENT_THEORY":"SGP4","COUNTRY_CODE":"US","TLE_LINE1":"1 54071U 22136W   22322.91667824  .00035476  00000-0  63034-3 0  9999","LAUNCH_DATE":"2022-10-20","NORAD_CAT_ID":"54071","SEMIMAJOR_AXIS":"6795.223","ECCENTRICITY":"0.00017810","OBJECT_NAME":"STARLINK-5168","CENTER_NAME":"EARTH","RA_OF_ASC_NODE":"4.1795","REV_AT_EPOCH":"130"},{"DECAY_DATE":null,"MEAN_MOTION":"15.49843479","EPOCH":"2022-11-18T22:00:00.999936","OBJECT_TYPE":"PAYLOAD","GP_ID":"218169909","MEAN_MOTION_DDOT":"0.0000000000000","COUNTRY_CODE":"US","TLE_LINE1":"1 54072U 22136X   22322.91667824  .00035673  00000-0  63453-3 0  9994","MEAN_ELEMENT_THEORY":"SGP4","LAUNCH_DATE":"2022-10-20","NORAD_CAT_ID":"54072","SEMIMAJOR_AXIS":"6795.321","ECCENTRICITY":"0.00018610","OBJECT_NAME":"STARLINK-5144","RA_OF_ASC_NODE":"4.1857","REV_AT_EPOCH":"130","CENTER_NAME":"EARTH","BSTAR":"0.00063453000000","RCS_SIZE":"LARGE","MEAN_MOTION_DOT":"0.00035673","EPHEMERIS_TYPE":"0","CLASSIFICATION_TYPE":"U","ELEMENT_SET_NO":"999","PERIOD":"92.913","FILE":"3662753","SITE":"AFETR","APOAPSIS":"418.450","OBJECT_ID":"2022-136X","REF_FRAME":"TEME","MEAN_ANOMALY":"348.8404","PERIAPSIS":"415.921","TLE_LINE2":"2 54072  53.2162   4.1857 0001861  41.4290 348.8404 15.49843479  1309","INCLINATION":"53.2162","TIME_SYSTEM":"UTC","ARG_OF_PERICENTER":"41.4290"},{"RCS_SIZE":"LARGE","BSTAR":"-0.01084700000000","MEAN_MOTION_DOT":"-0.01146235","EPHEMERIS_TYPE":"0","FILE":"3662753","CLASSIFICATION_TYPE":"U","ELEMENT_SET_NO":"999","PERIOD":"91.790","APOAPSIS":"363.279","SITE":"AFETR","OBJECT_ID":"2022-136Y","MEAN_ANOMALY":"291.0694","PERIAPSIS":"361.439","REF_FRAME":"TEME","INCLINATION":"53.2173","TIME_SYSTEM":"UTC","TLE_LINE2":"2 54073  53.2173   2.8865 0001365  19.6373 291.0694 15.68791312  1303","ARG_OF_PERICENTER":"19.6373","MEAN_MOTION":"15.68791312","DECAY_DATE":null,"EPOCH":"2022-11-18T22:00:00.999936","OBJECT_TYPE":"PAYLOAD","GP_ID":"218169104","MEAN_MOTION_DDOT":"0.0000000000000","MEAN_ELEMENT_THEORY":"SGP4","COUNTRY_CODE":"US","TLE_LINE1":"1 54073U 22136Y   22322.91667824 -.01146235  00000-0 -10847-1 0  9992","LAUNCH_DATE":"2022-10-20","SEMIMAJOR_AXIS":"6740.494","ECCENTRICITY":"0.00013650","NORAD_CAT_ID":"54073","OBJECT_NAME":"STARLINK-5146","CENTER_NAME":"EARTH","RA_OF_ASC_NODE":"2.8865","REV_AT_EPOCH":"130"},{"OBJECT_ID":"2022-136Z","MEAN_ANOMALY":"355.4067","PERIAPSIS":"416.181","REF_FRAME":"TEME","INCLINATION":"53.2163","TIME_SYSTEM":"UTC","TLE_LINE2":"2 54074  53.2163   4.1736 0001453  40.3633 355.4067 15.49849458  1306","ARG_OF_PERICENTER":"40.3633","BSTAR":"0.00060347000000","RCS_SIZE":"LARGE","EPHEMERIS_TYPE":"0","MEAN_MOTION_DOT":"0.00033904","FILE":"3662753","ELEMENT_SET_NO":"999","CLASSIFICATION_TYPE":"U","PERIOD":"92.912","APOAPSIS":"418.155","SITE":"AFETR","MEAN_ELEMENT_THEORY":"SGP4","COUNTRY_CODE":"US","TLE_LINE1":"1 54074U 22136Z   22322.91667824  .00033904  00000-0  60347-3 0  9990","LAUNCH_DATE":"2022-10-20","NORAD_CAT_ID":"54074","SEMIMAJOR_AXIS":"6795.303","OBJECT_NAME":"STARLINK-5192","ECCENTRICITY":"0.00014530","CENTER_NAME":"EARTH","RA_OF_ASC_NODE":"4.1736","REV_AT_EPOCH":"130","MEAN_MOTION":"15.49849458","DECAY_DATE":null,"EPOCH":"2022-11-18T22:00:00.999936","OBJECT_TYPE":"PAYLOAD","GP_ID":"218169270","MEAN_MOTION_DDOT":"0.0000000000000"},{"BSTAR":"-0.01076100000000","RCS_SIZE":"LARGE","EPHEMERIS_TYPE":"0","MEAN_MOTION_DOT":"-0.01120212","CLASSIFICATION_TYPE":"U","ELEMENT_SET_NO":"999","PERIOD":"91.790","FILE":"3662753","SITE":"AFETR","APOAPSIS":"363.052","OBJECT_ID":"2022-136AA","REF_FRAME":"TEME","MEAN_ANOMALY":"327.8081","PERIAPSIS":"361.577","TLE_LINE2":"2 54075  53.2174   2.8852 0001094 343.6252 327.8081 15.68806723  1308","INCLINATION":"53.2174","TIME_SYSTEM":"UTC","ARG_OF_PERICENTER":"343.6252","DECAY_DATE":null,"MEAN_MOTION":"15.68806723","EPOCH":"2022-11-18T22:00:00.999936","OBJECT_TYPE":"PAYLOAD","GP_ID":"218169755","MEAN_MOTION_DDOT":"0.0000000000000","COUNTRY_CODE":"US","TLE_LINE1":"1 54075U 22136AA  22322.91667824 -.01120212  00000-0 -10761-1 0  9996","MEAN_ELEMENT_THEORY":"SGP4","LAUNCH_DATE":"2022-10-20","NORAD_CAT_ID":"54075","SEMIMAJOR_AXIS":"6740.450","ECCENTRICITY":"0.00010940","OBJECT_NAME":"STARLINK-5212","RA_OF_ASC_NODE":"2.8852","REV_AT_EPOCH":"130","CENTER_NAME":"EARTH"},{"SITE":"AFETR","APOAPSIS":"418.278","CLASSIFICATION_TYPE":"U","ELEMENT_SET_NO":"999","PERIOD":"92.908","FILE":"3662753","MEAN_MOTION_DOT":"-0.00064078","EPHEMERIS_TYPE":"0","BSTAR":"-0.00112910000000","RCS_SIZE":"LARGE","ARG_OF_PERICENTER":"47.6593","TLE_LINE2":"2 54076  53.2163   4.1700 0001904  47.6593 349.9178 15.49912469  1309","INCLINATION":"53.2163","TIME_SYSTEM":"UTC","REF_FRAME":"TEME","MEAN_ANOMALY":"349.9178","PERIAPSIS":"415.690","OBJECT_ID":"2022-136AB","MEAN_MOTION_DDOT":"0.0000000000000","EPOCH":"2022-11-18T22:00:00.999936","GP_ID":"218169590","OBJECT_TYPE":"PAYLOAD","DECAY_DATE":null,"MEAN_MOTION":"15.49912469","RA_OF_ASC_NODE":"4.1700","REV_AT_EPOCH":"130","CENTER_NAME":"EARTH","NORAD_CAT_ID":"54076","SEMIMAJOR_AXIS":"6795.119","ECCENTRICITY":"0.00019040","OBJECT_NAME":"STARLINK-5201","LAUNCH_DATE":"2022-10-20","COUNTRY_CODE":"US","TLE_LINE1":"1 54076U 22136AB  22322.91667824 -.00064078  00000-0 -11291-2 0  9993","MEAN_ELEMENT_THEORY":"SGP4"}];
